[{"OBJECT_NAME":"FLOCK 4G-8","OBJECT_ID":"2025-009E","EPOCH":"2026-04-25T19:15:37.103328","MEAN_MOTION":15.2871117,"ECCENTRICITY":0.00056396,"INCLINATION":97.4007,"RA_OF_ASC_NODE":198.0685,"ARG_OF_PERICENTER":133.2557,"MEAN_ANOMALY":226.9155,"EPHEMERIS_TYPE":0,"CLASSIFICATION_TYPE":"U","NORAD_CAT_ID":62613,"ELEMENT_SET_NO":999,"REV_AT_EPOCH":7091,"BSTAR":0.00044783539,"MEAN_MOTION_DOT":0.00012439,"MEAN_MOTION_DDOT":0},{"OBJECT_NAME":"FLOCK 4G-13","OBJECT_ID":"2025-009N","EPOCH":"2026-04-25T18:09:42.070752","MEAN_MOTION":15.38058703,"ECCENTRICITY":0.00058099,"INCLINATION":97.3974,"RA_OF_ASC_NODE":198.352,"ARG_OF_PERICENTER":149.4558,"MEAN_ANOMALY":210.7026,"EPHEMERIS_TYPE":0,"CLASSIFICATION_TYPE":"U","NORAD_CAT_ID":62621,"ELEMENT_SET_NO":999,"REV_AT_EPOCH":7092,"BSTAR":0.0015173735,"MEAN_MOTION_DOT":0.00057127,"MEAN_MOTION_DDOT":0},{"OBJECT_NAME":"FLOCK 4G-9","OBJECT_ID":"2025-009P","EPOCH":"2026-04-25T20:51:24.424416","MEAN_MOTION":15.27132733,"ECCENTRICITY":0.00059221,"INCLINATION":97.3959,"RA_OF_ASC_NODE":197.2411,"ARG_OF_PERICENTER":138.7956,"MEAN_ANOMALY":221.3731,"EPHEMERIS_TYPE":0,"CLASSIFICATION_TYPE":"U","NORAD_CAT_ID":62622,"ELEMENT_SET_NO":999,"REV_AT_EPOCH":7087,"BSTAR":0.00040057397,"MEAN_MOTION_DOT":0.00010594,"MEAN_MOTION_DDOT":0},{"OBJECT_NAME":"FLOCK 4G-7","OBJECT_ID":"2025-009R","EPOCH":"2026-04-25T18:18:53.885088","MEAN_MOTION":15.28202252,"ECCENTRICITY":0.00041694,"INCLINATION":97.3948,"RA_OF_ASC_NODE":197.4224,"ARG_OF_PERICENTER":132.1268,"MEAN_ANOMALY":228.0327,"EPHEMERIS_TYPE":0,"CLASSIFICATION_TYPE":"U","NORAD_CAT_ID":62624,"ELEMENT_SET_NO":999,"REV_AT_EPOCH":7089,"BSTAR":0.00039589911,"MEAN_MOTION_DOT":0.00010814,"MEAN_MOTION_DDOT":0},{"OBJECT_NAME":"FLOCK 4G-12","OBJECT_ID":"2025-009S","EPOCH":"2026-04-25T18:03:14.825088","MEAN_MOTION":15.28063165,"ECCENTRICITY":0.0005709,"INCLINATION":97.4022,"RA_OF_ASC_NODE":197.8922,"ARG_OF_PERICENTER":129.8203,"MEAN_ANOMALY":230.3539,"EPHEMERIS_TYPE":0,"CLASSIFICATION_TYPE":"U","NORAD_CAT_ID":62625,"ELEMENT_SET_NO":999,"REV_AT_EPOCH":7089,"BSTAR":0.00041876511,"MEAN_MOTION_DOT":0.00011398,"MEAN_MOTION_DDOT":0},{"OBJECT_NAME":"FLOCK 4G-11","OBJECT_ID":"2025-009W","EPOCH":"2026-04-25T22:35:34.052640","MEAN_MOTION":15.28264246,"ECCENTRICITY":0.00041883,"INCLINATION":97.3926,"RA_OF_ASC_NODE":197.7245,"ARG_OF_PERICENTER":132.8066,"MEAN_ANOMALY":227.3526,"EPHEMERIS_TYPE":0,"CLASSIFICATION_TYPE":"U","NORAD_CAT_ID":62629,"ELEMENT_SET_NO":999,"REV_AT_EPOCH":7093,"BSTAR":0.0004621402,"MEAN_MOTION_DOT":0.00012663,"MEAN_MOTION_DDOT":0},{"OBJECT_NAME":"PELICAN-2","OBJECT_ID":"2025-009Y","EPOCH":"2026-04-25T19:47:41.820576","MEAN_MOTION":15.40471304,"ECCENTRICITY":0.00035583,"INCLINATION":97.3598,"RA_OF_ASC_NODE":206.6308,"ARG_OF_PERICENTER":98.4274,"MEAN_ANOMALY":261.7376,"EPHEMERIS_TYPE":0,"CLASSIFICATION_TYPE":"U","NORAD_CAT_ID":62631,"ELEMENT_SET_NO":999,"REV_AT_EPOCH":7149,"BSTAR":0.00085504617,"MEAN_MOTION_DOT":0.00034681,"MEAN_MOTION_DDOT":0},{"OBJECT_NAME":"FLOCK 4G-26","OBJECT_ID":"2025-009AA","EPOCH":"2026-04-25T18:20:47.454432","MEAN_MOTION":15.28324149,"ECCENTRICITY":0.00049438,"INCLINATION":97.4017,"RA_OF_ASC_NODE":198.0375,"ARG_OF_PERICENTER":123.9168,"MEAN_ANOMALY":236.2542,"EPHEMERIS_TYPE":0,"CLASSIFICATION_TYPE":"U","NORAD_CAT_ID":62633,"ELEMENT_SET_NO":999,"REV_AT_EPOCH":7090,"BSTAR":0.00042607534,"MEAN_MOTION_DOT":0.0001169,"MEAN_MOTION_DDOT":0},{"OBJECT_NAME":"FLOCK 4G-28","OBJECT_ID":"2025-009AB","EPOCH":"2026-04-25T18:05:32.383392","MEAN_MOTION":15.33969559,"ECCENTRICITY":0.0003369,"INCLINATION":97.4018,"RA_OF_ASC_NODE":200.1414,"ARG_OF_PERICENTER":120.3676,"MEAN_ANOMALY":239.79,"EPHEMERIS_TYPE":0,"CLASSIFICATION_TYPE":"U","NORAD_CAT_ID":62634,"ELEMENT_SET_NO":999,"REV_AT_EPOCH":7104,"BSTAR":0.00026295336,"MEAN_MOTION_DOT":8.564e-5,"MEAN_MOTION_DDOT":0},{"OBJECT_NAME":"FLOCK 4G-20","OBJECT_ID":"2025-009AD","EPOCH":"2026-04-25T17:54:26.299872","MEAN_MOTION":15.43911633,"ECCENTRICITY":0.0004246,"INCLINATION":97.3889,"RA_OF_ASC_NODE":199.0002,"ARG_OF_PERICENTER":171.9488,"MEAN_ANOMALY":188.183,"EPHEMERIS_TYPE":0,"CLASSIFICATION_TYPE":"U","NORAD_CAT_ID":62636,"ELEMENT_SET_NO":999,"REV_AT_EPOCH":7100,"BSTAR":0.0016522422,"MEAN_MOTION_DOT":0.00075643,"MEAN_MOTION_DDOT":0},{"OBJECT_NAME":"FLOCK 4G-24","OBJECT_ID":"2025-009AE","EPOCH":"2026-04-25T17:36:16.980768","MEAN_MOTION":15.28870309,"ECCENTRICITY":0.00045991,"INCLINATION":97.4022,"RA_OF_ASC_NODE":198.2505,"ARG_OF_PERICENTER":114.4374,"MEAN_ANOMALY":245.7346,"EPHEMERIS_TYPE":0,"CLASSIFICATION_TYPE":"U","NORAD_CAT_ID":62637,"ELEMENT_SET_NO":999,"REV_AT_EPOCH":7091,"BSTAR":0.00038522223,"MEAN_MOTION_DOT":0.00010738,"MEAN_MOTION_DDOT":0},{"OBJECT_NAME":"FLOCK 4G-3","OBJECT_ID":"2025-009AG","EPOCH":"2026-04-25T21:27:54.515808","MEAN_MOTION":15.28280879,"ECCENTRICITY":0.00044699,"INCLINATION":97.4027,"RA_OF_ASC_NODE":198.1839,"ARG_OF_PERICENTER":119.8579,"MEAN_ANOMALY":240.3106,"EPHEMERIS_TYPE":0,"CLASSIFICATION_TYPE":"U","NORAD_CAT_ID":62639,"ELEMENT_SET_NO":999,"REV_AT_EPOCH":7091,"BSTAR":0.00044163581,"MEAN_MOTION_DOT":0.00012103,"MEAN_MOTION_DDOT":0},{"OBJECT_NAME":"FLOCK 4G-27","OBJECT_ID":"2025-009AJ","EPOCH":"2026-04-25T21:53:01.190976","MEAN_MOTION":15.28250741,"ECCENTRICITY":0.00037201,"INCLINATION":97.3938,"RA_OF_ASC_NODE":197.651,"ARG_OF_PERICENTER":122.9003,"MEAN_ANOMALY":237.2595,"EPHEMERIS_TYPE":0,"CLASSIFICATION_TYPE":"U","NORAD_CAT_ID":62641,"ELEMENT_SET_NO":999,"REV_AT_EPOCH":7091,"BSTAR":0.00046273544,"MEAN_MOTION_DOT":0.00012673,"MEAN_MOTION_DDOT":0},{"OBJECT_NAME":"FLOCK 4G-29","OBJECT_ID":"2025-009AK","EPOCH":"2026-04-25T18:31:02.801280","MEAN_MOTION":15.28367647,"ECCENTRICITY":0.00044689,"INCLINATION":97.4021,"RA_OF_ASC_NODE":198.019,"ARG_OF_PERICENTER":116.9208,"MEAN_ANOMALY":243.2489,"EPHEMERIS_TYPE":0,"CLASSIFICATION_TYPE":"U","NORAD_CAT_ID":62642,"ELEMENT_SET_NO":999,"REV_AT_EPOCH":7089,"BSTAR":0.0003940477,"MEAN_MOTION_DOT":0.00010818,"MEAN_MOTION_DDOT":0},{"OBJECT_NAME":"FLOCK 4G-22","OBJECT_ID":"2025-009AN","EPOCH":"2026-04-25T18:47:16.046304","MEAN_MOTION":15.28236484,"ECCENTRICITY":0.00039934,"INCLINATION":97.4011,"RA_OF_ASC_NODE":198.0953,"ARG_OF_PERICENTER":117.0545,"MEAN_ANOMALY":243.1103,"EPHEMERIS_TYPE":0,"CLASSIFICATION_TYPE":"U","NORAD_CAT_ID":62645,"ELEMENT_SET_NO":999,"REV_AT_EPOCH":7091,"BSTAR":0.00038574516,"MEAN_MOTION_DOT":0.00010545,"MEAN_MOTION_DDOT":0},{"OBJECT_NAME":"FLOCK 4G-25","OBJECT_ID":"2025-009AP","EPOCH":"2026-04-25T18:24:19.730592","MEAN_MOTION":15.2842274,"ECCENTRICITY":0.00034604,"INCLINATION":97.4014,"RA_OF_ASC_NODE":198.127,"ARG_OF_PERICENTER":123.3533,"MEAN_ANOMALY":236.8038,"EPHEMERIS_TYPE":0,"CLASSIFICATION_TYPE":"U","NORAD_CAT_ID":62646,"ELEMENT_SET_NO":999,"REV_AT_EPOCH":7091,"BSTAR":0.00039023071,"MEAN_MOTION_DOT":0.00010729,"MEAN_MOTION_DDOT":0}]
